{
  "type": "FeatureCollection",
  "features": [
    {
      "type": "Feature",
      "properties": {
        "norad_id": 36632,
        "name": "COSMOS 2251 DEB",
        "group": "cosmos-2251-debris",
        "lat": 32.557296391546856,
        "lon": -83.78342028107706,
        "alt_km": 724.1735239440077,
        "timestamp": "2025-12-27T02:10:16.586455+00:00",
        "meta_object_name": "COSMOS 2251 DEB",
        "meta_object_id": "1993-036BEW",
        "meta_epoch": "2025-12-23T01:31:35.391648",
        "meta_mean_motion": 14.43225962,
        "meta_eccentricity": 0.00327185,
        "meta_inclination": 74.0013,
        "meta_ra_of_asc_node": 273.1539,
        "meta_arg_of_pericenter": 18.5865,
        "meta_mean_anomaly": 341.6478,
        "meta_ephemeris_type": 0,
        "meta_classification_type": "U",
        "meta_norad_cat_id": 36632,
        "meta_element_set_no": 999,
        "meta_rev_at_epoch": 65364,
        "meta_bstar": 0.0008144408,
        "meta_mean_motion_dot": 2.732e-05,
        "meta_mean_motion_ddot": 0,
        "tle_line1": "1 36632U 93036BEW 25357.06360407  .00002732  00000+0  81444-3 0  9996",
        "tle_line2": "2 36632  74.0013 273.1539 0032718  18.5865 341.6478 14.43225962653646"
      },
      "geometry": {
        "type": "Point",
        "coordinates": [
          -83.78342028107706,
          32.557296391546856
        ]
      }
    },
    {
      "type": "Feature",
      "properties": {
        "norad_id": 37084,
        "name": "COSMOS 2251 DEB",
        "group": "cosmos-2251-debris",
        "lat": 36.06898909642,
        "lon": -59.827350112141524,
        "alt_km": 533.6777458641263,
        "timestamp": "2025-12-27T02:10:16.586465+00:00",
        "meta_object_name": "COSMOS 2251 DEB",
        "meta_object_id": "1993-036BFE",
        "meta_epoch": "2025-12-24T15:57:16.760448",
        "meta_mean_motion": 15.01180609,
        "meta_eccentricity": 0.00968203,
        "meta_inclination": 74.0273,
        "meta_ra_of_asc_node": 137.155,
        "meta_arg_of_pericenter": 214.9103,
        "meta_mean_anomaly": 144.5712,
        "meta_ephemeris_type": 0,
        "meta_classification_type": "U",
        "meta_norad_cat_id": 37084,
        "meta_element_set_no": 999,
        "meta_rev_at_epoch": 66446,
        "meta_bstar": 0.00075136281,
        "meta_mean_motion_dot": 0.00010628,
        "meta_mean_motion_ddot": 0,
        "tle_line1": "1 37084U 93036BFE 25358.66477732  .00010628  00000+0  75136-3 0  9999",
        "tle_line2": "2 37084  74.0273 137.1550 0096820 214.9103 144.5712 15.01180609664465"
      },
      "geometry": {
        "type": "Point",
        "coordinates": [
          -59.827350112141524,
          36.06898909642
        ]
      }
    },
    {
      "type": "Feature",
      "properties": {
        "norad_id": 37085,
        "name": "COSMOS 2251 DEB",
        "group": "cosmos-2251-debris",
        "lat": -19.28474736281768,
        "lon": 10.517179245051505,
        "alt_km": 451.2369800810129,
        "timestamp": "2025-12-27T02:10:16.586475+00:00",
        "meta_object_name": "COSMOS 2251 DEB",
        "meta_object_id": "1993-036BFF",
        "meta_epoch": "2025-12-13T09:00:31.802112",
        "meta_mean_motion": 15.41681601,
        "meta_eccentricity": 0.00213151,
        "meta_inclination": 73.9479,
        "meta_ra_of_asc_node": 214.6598,
        "meta_arg_of_pericenter": 52.8263,
        "meta_mean_anomaly": 307.4887,
        "meta_ephemeris_type": 0,
        "meta_classification_type": "U",
        "meta_norad_cat_id": 37085,
        "meta_element_set_no": 999,
        "meta_rev_at_epoch": 67147,
        "meta_bstar": 0.0024657072,
        "meta_mean_motion_dot": 0.00106285,
        "meta_mean_motion_ddot": 0,
        "tle_line1": "1 37085U 93036BFF 25347.37536808  .00106285  00000+0  24657-2 0  9992",
        "tle_line2": "2 37085  73.9479 214.6598 0021315  52.8263 307.4887 15.41681601671472"
      },
      "geometry": {
        "type": "Point",
        "coordinates": [
          10.517179245051505,
          -19.28474736281768
        ]
      }
    },
    {
      "type": "Feature",
      "properties": {
        "norad_id": 37089,
        "name": "COSMOS 2251 DEB",
        "group": "cosmos-2251-debris",
        "lat": 14.507347148643484,
        "lon": 122.90684622806153,
        "alt_km": 805.0443514035715,
        "timestamp": "2025-12-27T02:10:16.586485+00:00",
        "meta_object_name": "COSMOS 2251 DEB",
        "meta_object_id": "1993-036BFK",
        "meta_epoch": "2025-12-21T15:34:23.731392",
        "meta_mean_motion": 14.53121083,
        "meta_eccentricity": 0.0134841,
        "meta_inclination": 74.0377,
        "meta_ra_of_asc_node": 128.9285,
        "meta_arg_of_pericenter": 227.2834,
        "meta_mean_anomaly": 131.6914,
        "meta_ephemeris_type": 0,
        "meta_classification_type": "U",
        "meta_norad_cat_id": 37089,
        "meta_element_set_no": 999,
        "meta_rev_at_epoch": 66239,
        "meta_bstar": 0.0022471011,
        "meta_mean_motion_dot": 0.00010467,
        "meta_mean_motion_ddot": 0,
        "tle_line1": "1 37089U 93036BFK 25355.64888578  .00010467  00000+0  22471-2 0  9997",
        "tle_line2": "2 37089  74.0377 128.9285 0134841 227.2834 131.6914 14.53121083662390"
      },
      "geometry": {
        "type": "Point",
        "coordinates": [
          122.90684622806153,
          14.507347148643484
        ]
      }
    },
    {
      "type": "Feature",
      "properties": {
        "norad_id": 37094,
        "name": "COSMOS 2251 DEB",
        "group": "cosmos-2251-debris",
        "lat": 69.10593354229631,
        "lon": 143.12709132550984,
        "alt_km": 701.4611015068967,
        "timestamp": "2025-12-27T02:10:16.586495+00:00",
        "meta_object_name": "COSMOS 2251 DEB",
        "meta_object_id": "1993-036BFQ",
        "meta_epoch": "2025-12-10T15:45:11.030688",
        "meta_mean_motion": 14.37808892,
        "meta_eccentricity": 0.0084108,
        "meta_inclination": 74.1091,
        "meta_ra_of_asc_node": 124.9809,
        "meta_arg_of_pericenter": 91.4784,
        "meta_mean_anomaly": 269.6007,
        "meta_ephemeris_type": 0,
        "meta_classification_type": "U",
        "meta_norad_cat_id": 37094,
        "meta_element_set_no": 999,
        "meta_rev_at_epoch": 84476,
        "meta_bstar": 0.0015212,
        "meta_mean_motion_dot": 4.753e-05,
        "meta_mean_motion_ddot": 0,
        "tle_line1": "1 37094U 93036BFQ 25344.65637767  .00004753  00000+0  15212-2 0  9990",
        "tle_line2": "2 37094  74.1091 124.9809 0084108  91.4784 269.6007 14.37808892844763"
      },
      "geometry": {
        "type": "Point",
        "coordinates": [
          143.12709132550984,
          69.10593354229631
        ]
      }
    },
    {
      "type": "Feature",
      "properties": {
        "norad_id": 37095,
        "name": "COSMOS 2251 DEB",
        "group": "cosmos-2251-debris",
        "lat": 25.151475699303457,
        "lon": 172.45584391048044,
        "alt_km": 1017.354389685047,
        "timestamp": "2025-12-27T02:10:16.586505+00:00",
        "meta_object_name": "COSMOS 2251 DEB",
        "meta_object_id": "1993-036BFR",
        "meta_epoch": "2025-12-20T05:48:30.438144",
        "meta_mean_motion": 14.03423265,
        "meta_eccentricity": 0.01937256,
        "meta_inclination": 73.8447,
        "meta_ra_of_asc_node": 176.6944,
        "meta_arg_of_pericenter": 233.1449,
        "meta_mean_anomaly": 125.1788,
        "meta_ephemeris_type": 0,
        "meta_classification_type": "U",
        "meta_norad_cat_id": 37095,
        "meta_element_set_no": 999,
        "meta_rev_at_epoch": 62741,
        "meta_bstar": 0.00075143733,
        "meta_mean_motion_dot": 1.362e-05,
        "meta_mean_motion_ddot": 0,
        "tle_line1": "1 37095U 93036BFR 25354.24201896  .00001362  00000+0  75144-3 0  9991",
        "tle_line2": "2 37095  73.8447 176.6944 0193725 233.1449 125.1788 14.03423265627411"
      },
      "geometry": {
        "type": "Point",
        "coordinates": [
          172.45584391048044,
          25.151475699303457
        ]
      }
    },
    {
      "type": "Feature",
      "properties": {
        "norad_id": 37108,
        "name": "COSMOS 2251 DEB",
        "group": "cosmos-2251-debris",
        "lat": -44.91167638788643,
        "lon": -109.43179320445996,
        "alt_km": 770.9910501154645,
        "timestamp": "2025-12-27T02:10:16.586515+00:00",
        "meta_object_name": "COSMOS 2251 DEB",
        "meta_object_id": "1993-036BGE",
        "meta_epoch": "2025-12-26T20:07:55.390656",
        "meta_mean_motion": 14.41401722,
        "meta_eccentricity": 0.0089965,
        "meta_inclination": 74.044,
        "meta_ra_of_asc_node": 54.4619,
        "meta_arg_of_pericenter": 127.5346,
        "meta_mean_anomaly": 233.4029,
        "meta_ephemeris_type": 0,
        "meta_classification_type": "U",
        "meta_norad_cat_id": 37108,
        "meta_element_set_no": 999,
        "meta_rev_at_epoch": 85710,
        "meta_bstar": 0.00097411,
        "meta_mean_motion_dot": 3.287e-05,
        "meta_mean_motion_ddot": 0,
        "tle_line1": "1 37108U 93036BGE 25360.83883554  .00003287  00000+0  97411-3 0  9994",
        "tle_line2": "2 37108  74.0440  54.4619 0089965 127.5346 233.4029 14.41401722857104"
      },
      "geometry": {
        "type": "Point",
        "coordinates": [
          -109.43179320445996,
          -44.91167638788643
        ]
      }
    }
  ]
}